CCSDS_OEM_VERS = 2.0
CREATION_DATE  = 2024-11-27T19:04:28.043
ORIGINATOR     = NASA/JSC/FOD/TOPO

META_START
OBJECT_NAME          = ISS
OBJECT_ID            = 1998-067-A
CENTER_NAME          = Earth
REF_FRAME            = EME2000
TIME_SYSTEM          = UTC
START_TIME           = 2024-11-27T12:00:00.000
USEABLE_START_TIME   = 2024-11-27T12:00:00.000
USEABLE_STOP_TIME    = 2024-12-12T12:00:00.000
STOP_TIME            = 2024-12-12T12:00:00.000
META_STOP

COMMENT Source: This file was produced by the TOPO office within FOD at JSC.
COMMENT Units are in kg and m^2
COMMENT MASS=473264.00
COMMENT DRAG_AREA=1524.99
COMMENT DRAG_COEFF=2.00
COMMENT SOLAR_RAD_AREA=0.00
COMMENT SOLAR_RAD_COEFF=0.00
COMMENT Orbits start at the ascending node epoch
COMMENT ISS first asc. node: EPOCH = 2024-11-27T12:30:42.054 $ ORBIT = 388 $ LAN(DEG) = -28.39900
COMMENT ISS last asc. node : EPOCH = 2024-12-12T11:26:57.314 $ ORBIT = 620 $ LAN(DEG) = -101.32648
COMMENT Begin sequence of events
COMMENT TRAJECTORY EVENT SUMMARY:
COMMENT 
COMMENT |       EVENT        |       TIG        | ORB |   DV    |   HA    |   HP    |
COMMENT |                    |       GMT        |     |   M/S   |   KM    |   KM    |
COMMENT |                    |                  |     |  (F/S)  |  (NM)   |  (NM)   |
COMMENT =============================================================================
COMMENT  SpX-31 Undock         340:16:00:00.000             0.0     419.1     412.6
COMMENT                                                    (0.0)   (226.3)   (222.8)
COMMENT 
COMMENT =============================================================================
COMMENT End sequence of events
2024-11-27T16:08:00.000 5111.630172229910 86.465538072672 4474.131669155460 2.73336788454753 6.37873033645343 -3.24141992182367
2024-11-27T16:12:00.000 5573.934087680290 1595.624116195950 3542.625489118920 1.09543532483928 6.12082573897561 -4.47379934537859
2024-11-27T16:16:00.000 5630.944173540160 2988.740934079660 2352.804831645360 -0.62346135473306 5.41751180379504 -5.38076180008341
2024-11-27T16:20:00.000 5278.230589758310 4164.378586307400 991.314198883539 -2.29797986465859 4.31954559102923 -5.89551811574952
2024-11-27T16:24:00.000 4541.296646252370 5036.887684195560 -442.538586247352 -3.80560939422686 2.90693266732885 -5.98002522342696
2024-11-27T16:28:00.000 3473.782705027570 5542.768946659530 -1844.091246352490 -5.03587973572015 1.28312743270184 -5.62804710942083
2024-11-27T16:32:00.000 2153.518111512720 5645.398266214290 -3111.103257764180 -5.89902964433009 -0.43285432275489 -4.86585402428518
2024-11-27T16:36:00.000 676.688776841275 5337.653943114840 -4151.327159452830 -6.33274383245992 -2.11575539998046 -3.74984836343958
2024-11-27T16:40:00.000 -849.302222499138 4642.280022009270 -4889.226430019040 -6.30636340811010 -3.64350028845467 -2.36193073091779
2024-11-27T16:44:00.000 -2313.681093686190 3610.053571832600 -5271.350303469320 -5.82252505036844 -4.90590455799315 -0.80311134753341
2024-11-27T16:48:00.000 -3610.260756316340 2316.002600640020 -5270.063067369730 -4.91652356216166 -5.81220858958305 0.81378098689900
2024-11-27T16:52:00.000 -4644.987081021770 853.982408221656 -4885.443608374090 -3.65356349553662 -6.29714606890386 2.37195298547426
2024-11-27T16:56:00.000 -5342.620806910170 -669.994955999894 -4145.279502948940 -2.12438029977703 -6.32527337953158 3.75859893584607
2024-11-27T17:00:00.000 -5652.181700765720 -2145.287322338400 -3103.169735991320 -0.43925458621568 -5.89375204555681 4.87271787383650
2024-11-27T17:04:00.000 -5550.760880249130 -3464.575778319020 -1834.791639180650 1.27953523482118 -5.03304399930426 5.63248299246127
2024-11-27T17:08:00.000 -5045.371821720200 -4531.710675709170 -432.512394506557 2.90644723393574 -3.80529037122614 5.98158788280378
2024-11-27T17:12:00.000 -4172.601010953210 -5268.862977105570 1001.346282016170 4.32219482230890 -2.30008024310980 5.89397892960722
2024-11-27T17:16:00.000 -2995.979404385990 -5622.343026806090 2362.083475394720 5.42296708301477 -0.62770823304482 5.37602502050979
2024-11-27T17:20:00.000 -1601.281228051940 -5566.587546752510 3550.406092193690 6.12843105713586 1.08926882518948 4.46613202930572
2024-11-27T17:24:00.000 -90.107424022200 -5105.962466812750 4479.779137350460 6.38780013892062 2.72561587034626 3.23142028106447
2024-11-27T17:28:00.000 1427.636109343460 -4274.271312216260 5082.685816729860 6.18295536035467 4.16272161362273 1.76223453936459
2024-11-27T17:32:00.000 2841.714284742630 -3132.153411614300 5315.418722210140 5.52923002016895 5.29685024004505 0.16543359257188
2024-11-27T17:36:00.000 4049.477152127600 -1762.633395137700 5161.140615718850 4.47409801746264 6.04627562706257 -1.44326315210247
2024-11-27T17:40:00.000 4963.192565822810 -265.135203995419 4631.034721318560 3.09364457605023 6.35682106163064 -2.94741671603727
2024-11-27T17:44:00.000 5516.317925860450 1251.607682501880 3763.524833140910 1.48739919649871 6.20556907922811 -4.23776768159618
2024-11-27T17:48:00.000 5668.367683957240 2677.329365587630 2621.614545579900 -0.22826724291008 5.60282704675616 -5.22000661205765
2024-11-27T17:52:00.000 5407.992031262540 3908.231061893430 1288.424659589740 -1.92841321587256 4.59193006470096 -5.82188553613993
2024-11-27T17:56:00.000 4753.951624836460 4854.623904151650 -138.817706546914 -3.48862686249876 3.24647131481771 -5.99891376982659
2024-11-27T18:00:00.000 3753.838313966370 5447.608062485220 -1555.936871498790 -4.79463840115046 1.66498195808046 -5.73807076849151
2024-11-27T18:04:00.000 2480.560870534690 5644.182320824250 -2859.534909450120 -5.75108199597558 -0.03663304557876 -5.05881027331663
2024-11-27T18:08:00.000 1026.910865847050 5430.367011864560 -3954.648346225080 -6.28867263051852 -1.73399986550715 -4.01147807161088
2024-11-27T18:12:00.000 -501.344043631565 4822.095742155050 -4761.705859062810 -6.36915666703674 -3.30378816798950 -2.67310213905303
2024-11-27T18:16:00.000 -1993.226440210100 3863.868761234420 -5222.224277194210 -5.98752617384266 -4.63267454795618 -1.14126134310061
2024-11-27T18:20:00.000 -3340.546287411290 2625.392429891770 -5302.896610541230 -5.17180222725021 -5.62511520600562 0.47307411798684
2024-11-27T18:24:00.000 -4445.597684900330 1196.519502442460 -4997.882636850130 -3.98080123299143 -6.20969958940494 2.05330923843961
2024-11-27T18:28:00.000 -5228.094737980980 -319.150482891333 -4329.208318729320 -2.50005764453919 -6.34394758455754 3.48513416034903
2024-11-27T18:32:00.000 -5630.939688137450 -1811.623178060170 -3345.269591020130 -0.83621409117393 -6.01741374702436 4.66441091060373
2024-11-27T18:36:00.000 -5624.460691479930 -3172.385213711540 -2117.475676366910 0.89015787121115 -5.25291504505966 5.50469747007502
2024-11-27T18:40:00.000 -5208.744000561500 -4302.307806752270 -735.183355551766 2.55316094685059 -4.10544610966660 5.94386362046271
2024-11-27T18:44:00.000 -4413.799240395810 -5118.986565963330 700.781394369319 4.03092127321358 -2.65857460696342 5.94914929145812
2024-11-27T18:48:00.000 -3297.450478287090 -5562.913390297470 2085.570960536560 5.21506114519148 -1.01829924088936 5.52005422699332
2024-11-27T18:52:00.000 -1941.055528015400 -5601.897292745800 3318.118517141800 6.01907785718385 0.69521891885015 4.68834516628066
2024-11-27T18:56:00.000 -443.446867224122 -5233.374304939120 4308.613994973570 6.38476246374665 2.35682054528636 3.51542478881734
2024-11-27T19:00:00.000 1086.406125760580 -4484.465551395780 4985.059466362860 6.28627500104894 3.84584144187192 2.08731872520355
2024-11-27T19:04:00.000 2537.366079268080 -3409.831308065220 5298.403478703930 5.73138982145720 5.05478802267287 0.50801411040255
2024-11-27T19:08:00.000 3804.106754196070 -2087.612638963370 5225.957124829100 4.76042660485211 5.89654865635351 -1.10806548424025
2024-11-27T19:12:00.000 4794.622396177160 -613.813746284696 4772.967816038760 3.44344370009164 6.31026608568777 -2.64388883890322
2024-11-27T19:16:00.000 5436.823622276620 904.561496525857 3972.262451781590 1.87538375040261 6.26566541949058 -3.98800395270845
2024-11-27T19:20:00.000 5683.768438643820 2357.157768860280 2881.965460485290 0.16969941910343 5.76533359277610 -5.04231720948942
2024-11-27T19:24:00.000 5517.190917623950 3638.243361239020 1581.404294917980 -1.54953156075927 4.84506671715416 -5.72935339841535
2024-11-27T19:28:00.000 4948.989153475530 4654.471368416160 165.403708440546 -3.15657754939477 3.57170967364911 -5.99833227449134
2024-11-27T19:32:00.000 4020.475762286660 5331.823278099500 -1262.676250398950 -4.53367707846194 2.03847940335400 -5.82941545865594
2024-11-27T19:36:00.000 2799.338806849750 5621.113855023510 -2598.612535207450 -5.58017895177902 0.35776154539898 -5.23526971650592
2024-11-27T19:40:00.000 1374.597528226800 5501.583986725300 -3745.040070626570 -6.22010213420139 -1.34747965484276 -4.25998752005765
2024-11-27T19:44:00.000 -150.031500013164 4982.310846048780 -4618.605128408760 -6.40765200323806 -2.95315197585641 -2.97542475827262
2024-11-27T19:48:00.000 -1663.776359742690 4101.367410709870 -5155.969201943540 -6.13008639003473 -4.34316220055895 -1.47542925955103
2024-11-27T19:52:00.000 -3056.831978935880 2922.906924043040 -5318.261301966690 -5.40806561248556 -5.41751409489715 0.13119770574196
2024-11-27T19:56:00.000 -4228.190119195430 1532.465884695940 -5093.749826735820 -4.29376006663480 -6.09898393318126 1.72839854815843
2024-11-27T20:00:00.000 -5092.797254719090 30.857444670484 -4498.642011531620 -2.86721541574063 -6.33822040992320 3.20073676904050
2024-11-27T20:04:00.000 -5587.641531931480 -1472.973861798870 -3575.981877011160 -1.23105580282042 -6.11724704787644 4.44129155889210
2024-11-27T20:08:00.000 -5676.387019884060 -2869.728902003650 -2392.692668169720 0.49631493927479 -5.45121792365128 5.35923951154049
2024-11-27T20:12:00.000 -5352.183633202270 -4057.695192189240 -1034.851036514530 2.18908058224286 -4.38789107223991 5.88684335092946
